{
    "week": 293,
    "satellites": [
        {
            "Name": "GSAT0208 (GALILEO 11)",
            "Line1": "1 41175U 15079B   24323.23357997  .00000034  00000+0  00000+0 0  9994",
            "Line2": "2 41175  55.4975 117.0785 0001453   9.7658 350.2088  1.70474262 55539",
            "SatelliteNumber": "41175",
            "Classification": "U",
            "LaunchYear": "15",
            "LaunchNumber": "079",
            "PieceOfLaunch": "B",
            "EpochYear": "24",
            "EpochDay": 323.23357997,
            "FirstDerivativeMeanMotion": 3.4e-07,
            "SecondDerivativeMeanMotion": "00000+0",
            "BSTAR": "00000+0",
            "SetNumber": "999",
            "Inclination": 55.4975,
            "RAAN": 117.0785,
            "Eccentricity": 0.0001453,
            "ArgumentOfPerigee": 9.7658,
            "MeanAnomaly": 350.2088,
            "MeanMotion": 1.70474262,
            "RevolutionNumber": "5553"
        },
        {
            "Name": "GSAT0211 (GALILEO 14)",
            "Line1": "1 41549U 16030A   24325.11652024 -.00000017  00000+0  00000+0 0  9997",
            "Line2": "2 41549  55.2980 237.4873 0003754 356.5931   3.4513  1.70472911 52868",
            "SatelliteNumber": "41549",
            "Classification": "U",
            "LaunchYear": "16",
            "LaunchNumber": "030",
            "PieceOfLaunch": "A",
            "EpochYear": "24",
            "EpochDay": 325.11652024,
            "FirstDerivativeMeanMotion": -1.7e-07,
            "SecondDerivativeMeanMotion": "00000+0",
            "BSTAR": "00000+0",
            "SetNumber": "999",
            "Inclination": 55.298,
            "RAAN": 237.4873,
            "Eccentricity": 0.0003754,
            "ArgumentOfPerigee": 356.5931,
            "MeanAnomaly": 3.4513,
            "MeanMotion": 1.70472911,
            "RevolutionNumber": "5286"
        },
        {
            "Name": "GSAT0210 (GALILEO 13)",
            "Line1": "1 41550U 16030B   24324.78790395 -.00000015  00000+0  00000+0 0  9993",
            "Line2": "2 41550  55.2972 237.4944 0002087 245.9088 114.1164  1.70473489 52876",
            "SatelliteNumber": "41550",
            "Classification": "U",
            "LaunchYear": "16",
            "LaunchNumber": "030",
            "PieceOfLaunch": "B",
            "EpochYear": "24",
            "EpochDay": 324.78790395,
            "FirstDerivativeMeanMotion": -1.5e-07,
            "SecondDerivativeMeanMotion": "00000+0",
            "BSTAR": "00000+0",
            "SetNumber": "999",
            "Inclination": 55.2972,
            "RAAN": 237.4944,
            "Eccentricity": 0.0002087,
            "ArgumentOfPerigee": 245.9088,
            "MeanAnomaly": 114.1164,
            "MeanMotion": 1.70473489,
            "RevolutionNumber": "5287"
        },
        {
            "Name": "GSAT0207 (GALILEO 15)",
            "Line1": "1 41859U 16069A   24324.48041039  .00000036  00000+0  00000+0 0  9990",
            "Line2": "2 41859  55.1655 117.0102 0001703 315.3000  44.6588  1.70474328 49601",
            "SatelliteNumber": "41859",
            "Classification": "U",
            "LaunchYear": "16",
            "LaunchNumber": "069",
            "PieceOfLaunch": "A",
            "EpochYear": "24",
            "EpochDay": 324.48041039,
            "FirstDerivativeMeanMotion": 3.6e-07,
            "SecondDerivativeMeanMotion": "00000+0",
            "BSTAR": "00000+0",
            "SetNumber": "999",
            "Inclination": 55.1655,
            "RAAN": 117.0102,
            "Eccentricity": 0.0001703,
            "ArgumentOfPerigee": 315.3,
            "MeanAnomaly": 44.6588,
            "MeanMotion": 1.70474328,
            "RevolutionNumber": "4960"
        },
        {
            "Name": "GSAT0212 (GALILEO 16)",
            "Line1": "1 41860U 16069B   24323.74795129  .00000034  00000+0  00000+0 0  9994",
            "Line2": "2 41860  55.1640 117.0265 0001943  35.3421 324.6424  1.70474536 49846",
            "SatelliteNumber": "41860",
            "Classification": "U",
            "LaunchYear": "16",
            "LaunchNumber": "069",
            "PieceOfLaunch": "B",
            "EpochYear": "24",
            "EpochDay": 323.74795129,
            "FirstDerivativeMeanMotion": 3.4e-07,
            "SecondDerivativeMeanMotion": "00000+0",
            "BSTAR": "00000+0",
            "SetNumber": "999",
            "Inclination": 55.164,
            "RAAN": 117.0265,
            "Eccentricity": 0.0001943,
            "ArgumentOfPerigee": 35.3421,
            "MeanAnomaly": 324.6424,
            "MeanMotion": 1.70474536,
            "RevolutionNumber": "4984"
        },
        {
            "Name": "GSAT0213 (GALILEO 17)",
            "Line1": "1 41861U 16069C   24324.70283503  .00000036  00000+0  00000+0 0  9992",
            "Line2": "2 41861  55.1652 117.0071 0001836 265.2014  94.7507  1.70474859 49720",
            "SatelliteNumber": "41861",
            "Classification": "U",
            "LaunchYear": "16",
            "LaunchNumber": "069",
            "PieceOfLaunch": "C",
            "EpochYear": "24",
            "EpochDay": 324.70283503,
            "FirstDerivativeMeanMotion": 3.6e-07,
            "SecondDerivativeMeanMotion": "00000+0",
            "BSTAR": "00000+0",
            "SetNumber": "999",
            "Inclination": 55.1652,
            "RAAN": 117.0071,
            "Eccentricity": 0.0001836,
            "ArgumentOfPerigee": 265.2014,
            "MeanAnomaly": 94.7507,
            "MeanMotion": 1.70474859,
            "RevolutionNumber": "4972"
        },
        {
            "Name": "GSAT0214 (GALILEO 18)",
            "Line1": "1 41862U 16069D   24324.84825394  .00000037  00000+0  00000+0 0  9999",
            "Line2": "2 41862  55.1643 116.9963 0000903 262.7119  97.2513  1.70474645 49853",
            "SatelliteNumber": "41862",
            "Classification": "U",
            "LaunchYear": "16",
            "LaunchNumber": "069",
            "PieceOfLaunch": "D",
            "EpochYear": "24",
            "EpochDay": 324.84825394,
            "FirstDerivativeMeanMotion": 3.7e-07,
            "SecondDerivativeMeanMotion": "00000+0",
            "BSTAR": "00000+0",
            "SetNumber": "999",
            "Inclination": 55.1643,
            "RAAN": 116.9963,
            "Eccentricity": 9.03e-05,
            "ArgumentOfPerigee": 262.7119,
            "MeanAnomaly": 97.2513,
            "MeanMotion": 1.70474645,
            "RevolutionNumber": "4985"
        },
        {
            "Name": "GSAT0215 (GALILEO 19)",
            "Line1": "1 43055U 17079A   24323.57829046 -.00000009  00000+0  00000+0 0  9994",
            "Line2": "2 43055  55.2756 237.3492 0001861 300.8017  59.2258  1.70473701 43170",
            "SatelliteNumber": "43055",
            "Classification": "U",
            "LaunchYear": "17",
            "LaunchNumber": "079",
            "PieceOfLaunch": "A",
            "EpochYear": "24",
            "EpochDay": 323.57829046,
            "FirstDerivativeMeanMotion": -9e-08,
            "SecondDerivativeMeanMotion": "00000+0",
            "BSTAR": "00000+0",
            "SetNumber": "999",
            "Inclination": 55.2756,
            "RAAN": 237.3492,
            "Eccentricity": 0.0001861,
            "ArgumentOfPerigee": 300.8017,
            "MeanAnomaly": 59.2258,
            "MeanMotion": 1.70473701,
            "RevolutionNumber": "4317"
        },
        {
            "Name": "GSAT0216 (GALILEO 20)",
            "Line1": "1 43056U 17079B   24325.04304917 -.00000017  00000+0  00000+0 0  9993",
            "Line2": "2 43056  55.2754 237.3089 0003228 301.0728  58.9429  1.70473842 43185",
            "SatelliteNumber": "43056",
            "Classification": "U",
            "LaunchYear": "17",
            "LaunchNumber": "079",
            "PieceOfLaunch": "B",
            "EpochYear": "24",
            "EpochDay": 325.04304917,
            "FirstDerivativeMeanMotion": -1.7e-07,
            "SecondDerivativeMeanMotion": "00000+0",
            "BSTAR": "00000+0",
            "SetNumber": "999",
            "Inclination": 55.2754,
            "RAAN": 237.3089,
            "Eccentricity": 0.0003228,
            "ArgumentOfPerigee": 301.0728,
            "MeanAnomaly": 58.9429,
            "MeanMotion": 1.70473842,
            "RevolutionNumber": "4318"
        },
        {
            "Name": "GSAT0217 (GALILEO 21)",
            "Line1": "1 43057U 17079C   24322.91723933 -.00000006  00000+0  00000+0 0  9998",
            "Line2": "2 43057  55.2748 237.3658 0003083 320.5807  39.4405  1.70473709 43162",
            "SatelliteNumber": "43057",
            "Classification": "U",
            "LaunchYear": "17",
            "LaunchNumber": "079",
            "PieceOfLaunch": "C",
            "EpochYear": "24",
            "EpochDay": 322.91723933,
            "FirstDerivativeMeanMotion": -6e-08,
            "SecondDerivativeMeanMotion": "00000+0",
            "BSTAR": "00000+0",
            "SetNumber": "999",
            "Inclination": 55.2748,
            "RAAN": 237.3658,
            "Eccentricity": 0.0003083,
            "ArgumentOfPerigee": 320.5807,
            "MeanAnomaly": 39.4405,
            "MeanMotion": 1.70473709,
            "RevolutionNumber": "4316"
        }
    ]
}